IONOSFERA-M 3           
1 64876U 25155A   26064.77367236  .00000112  00000+0  70965-4 0  9992
2 64876  98.5917  29.3464 0001965 124.1730 235.9634 14.21465362 31717
IONOSFERA-M 4           
1 64877U 25155B   26064.80865685  .00000116  00000+0  72495-4 0  9992
2 64877  98.5913  29.2990 0001606 107.0225 253.1129 14.21467116 31718
MICROCARB               
1 64899U 25156A   26064.70932109  .00000985  00000+0  16388-3 0  9994
2 64899  97.9892 143.6804 0015244 240.7773 119.1910 14.72195717 32746
CO3D 3                  
1 64900U 25156B   26064.64839190  .00008122  00000+0  37784-3 0  9990
2 64900  97.4329 144.8275 0001506 153.0630 207.0684 15.20209195 33801
CO3D 4                  
1 64901U 25156C   26061.29158243  .00001237  00000+0  60250-4 0  9997
2 64901  97.4334 141.5187 0000254 280.3117  79.8089 15.20203154 33293
CO3D 2                  
1 64902U 25156D   26064.74684696  .00006993  00000+0  32591-3 0  9997
2 64902  97.4332 144.8237 0001406 128.8746 231.2615 15.20197351 33816
CO3D 1                  
1 64903U 25156E   26064.74700060  .00005717  00000+0  26700-3 0  9990
2 64903  97.4329 144.8235 0001237 136.2342 223.8991 15.20200667 33817
SENTINEL-6B             
1 66514U 25264A   26064.71331394 -.00000043  00000+0  77165-4 0  9997
2 66514  66.0447 350.0962 0007976 270.7026  89.3075 12.80929392 13910
CSG-3                   
1 67304U 26001A   26064.77286834  .00000672  00000+0  90943-4 0  9995
2 67304  97.8863 249.8672 0001354  90.6392 269.4976 14.82168148  9143
