[{"OBJECT_NAME":"IONOSFERA-M 3","OBJECT_ID":"2025-155A","EPOCH":"2026-03-05T18:34:05.291904","MEAN_MOTION":14.21465362,"ECCENTRICITY":0.0001965,"INCLINATION":98.5917,"RA_OF_ASC_NODE":29.3464,"ARG_OF_PERICENTER":124.173,"MEAN_ANOMALY":235.9634,"EPHEMERIS_TYPE":0,"CLASSIFICATION_TYPE":"U","NORAD_CAT_ID":64876,"ELEMENT_SET_NO":999,"REV_AT_EPOCH":3171,"BSTAR":7.0965e-5,"MEAN_MOTION_DOT":1.12e-6,"MEAN_MOTION_DDOT":0},{"OBJECT_NAME":"IONOSFERA-M 4","OBJECT_ID":"2025-155B","EPOCH":"2026-03-05T19:24:27.951840","MEAN_MOTION":14.21467116,"ECCENTRICITY":0.0001606,"INCLINATION":98.5913,"RA_OF_ASC_NODE":29.299,"ARG_OF_PERICENTER":107.0225,"MEAN_ANOMALY":253.1129,"EPHEMERIS_TYPE":0,"CLASSIFICATION_TYPE":"U","NORAD_CAT_ID":64877,"ELEMENT_SET_NO":999,"REV_AT_EPOCH":3171,"BSTAR":7.2495e-5,"MEAN_MOTION_DOT":1.16e-6,"MEAN_MOTION_DDOT":0},{"OBJECT_NAME":"MICROCARB","OBJECT_ID":"2025-156A","EPOCH":"2026-03-05T17:01:25.342176","MEAN_MOTION":14.72195717,"ECCENTRICITY":0.0015244,"INCLINATION":97.9892,"RA_OF_ASC_NODE":143.6804,"ARG_OF_PERICENTER":240.7773,"MEAN_ANOMALY":119.191,"EPHEMERIS_TYPE":0,"CLASSIFICATION_TYPE":"U","NORAD_CAT_ID":64899,"ELEMENT_SET_NO":999,"REV_AT_EPOCH":3274,"BSTAR":0.00016388,"MEAN_MOTION_DOT":9.85e-6,"MEAN_MOTION_DDOT":0},{"OBJECT_NAME":"CO3D 3","OBJECT_ID":"2025-156B","EPOCH":"2026-03-05T15:33:41.060160","MEAN_MOTION":15.20209195,"ECCENTRICITY":0.0001506,"INCLINATION":97.4329,"RA_OF_ASC_NODE":144.8275,"ARG_OF_PERICENTER":153.063,"MEAN_ANOMALY":207.0684,"EPHEMERIS_TYPE":0,"CLASSIFICATION_TYPE":"U","NORAD_CAT_ID":64900,"ELEMENT_SET_NO":999,"REV_AT_EPOCH":3380,"BSTAR":0.00037784,"MEAN_MOTION_DOT":8.122e-5,"MEAN_MOTION_DDOT":0},{"OBJECT_NAME":"CO3D 4","OBJECT_ID":"2025-156C","EPOCH":"2026-03-02T06:59:52.721952","MEAN_MOTION":15.20203154,"ECCENTRICITY":2.545e-5,"INCLINATION":97.4334,"RA_OF_ASC_NODE":141.5187,"ARG_OF_PERICENTER":280.3117,"MEAN_ANOMALY":79.8089,"EPHEMERIS_TYPE":0,"CLASSIFICATION_TYPE":"U","NORAD_CAT_ID":64901,"ELEMENT_SET_NO":999,"REV_AT_EPOCH":3329,"BSTAR":6.0250155e-5,"MEAN_MOTION_DOT":1.237e-5,"MEAN_MOTION_DDOT":0},{"OBJECT_NAME":"CO3D 2","OBJECT_ID":"2025-156D","EPOCH":"2026-03-05T17:55:27.577344","MEAN_MOTION":15.20197351,"ECCENTRICITY":0.0001406,"INCLINATION":97.4332,"RA_OF_ASC_NODE":144.8237,"ARG_OF_PERICENTER":128.8746,"MEAN_ANOMALY":231.2615,"EPHEMERIS_TYPE":0,"CLASSIFICATION_TYPE":"U","NORAD_CAT_ID":64902,"ELEMENT_SET_NO":999,"REV_AT_EPOCH":3381,"BSTAR":0.00032591,"MEAN_MOTION_DOT":6.993e-5,"MEAN_MOTION_DDOT":0},{"OBJECT_NAME":"CO3D 1","OBJECT_ID":"2025-156E","EPOCH":"2026-03-05T17:55:40.851840","MEAN_MOTION":15.20200667,"ECCENTRICITY":0.0001237,"INCLINATION":97.4329,"RA_OF_ASC_NODE":144.8235,"ARG_OF_PERICENTER":136.2342,"MEAN_ANOMALY":223.8991,"EPHEMERIS_TYPE":0,"CLASSIFICATION_TYPE":"U","NORAD_CAT_ID":64903,"ELEMENT_SET_NO":999,"REV_AT_EPOCH":3381,"BSTAR":0.000267,"MEAN_MOTION_DOT":5.717e-5,"MEAN_MOTION_DDOT":0},{"OBJECT_NAME":"SENTINEL-6B","OBJECT_ID":"2025-264A","EPOCH":"2026-03-05T17:07:10.324416","MEAN_MOTION":12.80929392,"ECCENTRICITY":0.0007976,"INCLINATION":66.0447,"RA_OF_ASC_NODE":350.0962,"ARG_OF_PERICENTER":270.7026,"MEAN_ANOMALY":89.3075,"EPHEMERIS_TYPE":0,"CLASSIFICATION_TYPE":"U","NORAD_CAT_ID":66514,"ELEMENT_SET_NO":999,"REV_AT_EPOCH":1391,"BSTAR":7.7165e-5,"MEAN_MOTION_DOT":-4.3e-7,"MEAN_MOTION_DDOT":0},{"OBJECT_NAME":"CSG-3","OBJECT_ID":"2026-001A","EPOCH":"2026-03-05T18:32:55.824576","MEAN_MOTION":14.82168148,"ECCENTRICITY":0.0001354,"INCLINATION":97.8863,"RA_OF_ASC_NODE":249.8672,"ARG_OF_PERICENTER":90.6392,"MEAN_ANOMALY":269.4976,"EPHEMERIS_TYPE":0,"CLASSIFICATION_TYPE":"U","NORAD_CAT_ID":67304,"ELEMENT_SET_NO":999,"REV_AT_EPOCH":914,"BSTAR":9.0943e-5,"MEAN_MOTION_DOT":6.72e-6,"MEAN_MOTION_DDOT":0}]
